[
    {
        "Altitude(m)": 610405.3407353372,
        "Argument of Periapsis(deg)": 0.0,
        "Eccentricity": 0.0,
        "Inclination(deg)": 60.0,
        "Latitude(deg)": 52.11132041537005,
        "Longitude(deg)": 137.4775153896473,
        "Mean Anomaly(deg)": 114.54549999999999,
        "RAAN(deg)": 105.0,
        "Satellite Name": "Test1 469",
        "Satellite Number": 469,
        "Semi-Major Axis(m)": 6980739.136638005,
        "Time(s)": 0
    },
    {
        "Altitude(m)": 610321.9133958552,
        "Argument of Periapsis(deg)": 0.00010418945913296404,
        "Eccentricity": 0.0,
        "Inclination(deg)": 60.0,
        "Latitude(deg)": 51.746034368374204,
        "Longitude(deg)": 138.2464087636526,
        "Mean Anomaly(deg)": 115.16560614546182,
        "RAAN(deg)": 104.99957995086028,
        "Satellite Name": "Test1 469",
        "Satellite Number": 469,
        "Semi-Major Axis(m)": 6980739.136638005,
        "Time(s)": 10
    }
]